QIANFAN-73              
1 63159U 25046A   25326.75602022  .00000029  00000+0  26619-4 0  9991
2 63159  88.9750 322.0934 0014943 174.5358 185.5959 13.50973941 44710
QIANFAN-74              
1 63160U 25046B   25326.73947105  .00000032  00000+0  30634-4 0  9991
2 63160  88.9751 321.9836 0002017  85.3905 274.7476 13.50976089 44775
QIANFAN-75              
1 63161U 25046C   25326.72680580  .00000111  00000+0  15276-3 0  9994
2 63161  88.9753 322.2182 0015949 178.2086 181.9125 13.50989139 44642
QIANFAN-76              
1 63162U 25046D   25326.72317323 -.00000103  00000+0 -17848-3 0  9997
2 63162  88.9749 322.1996 0013498 177.8879 182.2331 13.50965618 44652
QIANFAN-77              
1 63163U 25046E   25326.76045766  .00000083  00000+0  50121-4 0  9998
2 63163  88.9752 320.3662 0016100 137.0714 223.1722 13.96075998 45660
QIANFAN-78              
1 63164U 25046F   25326.76422530  .00000012  00000+0  46427-6 0  9995
2 63164  88.9749 322.0594 0014794 180.6425 179.4709 13.50974627 44732
QIANFAN-79              
1 63165U 25046G   25326.71884375  .00000029  00000+0  25696-4 0  9991
2 63165  88.9754 322.1708 0014545 178.7460 181.3730 13.50975533 44674
QIANFAN-80              
1 63166U 25046H   25326.73534914  .00000080  00000+0  10535-3 0  9997
2 63166  88.9752 321.8763 0013379 182.5927 177.5157 13.50979795 44837
